[{"OBJECT_NAME":"STARLINK-11353 [DTC]","OBJECT_ID":"2024-209C","EPOCH":"2026-03-09T06:01:48.015552","MEAN_MOTION":15.69757208,"ECCENTRICITY":0.0001171,"INCLINATION":53.157,"RA_OF_ASC_NODE":13.087,"ARG_OF_PERICENTER":75.745,"MEAN_ANOMALY":284.3698,"EPHEMERIS_TYPE":0,"CLASSIFICATION_TYPE":"U","NORAD_CAT_ID":61941,"ELEMENT_SET_NO":999,"REV_AT_EPOCH":7661,"BSTAR":0.0014887216,"MEAN_MOTION_DOT":0.00184187,"MEAN_MOTION_DDOT":0},{"OBJECT_NAME":"DOVE 2","OBJECT_ID":"2013-015C","EPOCH":"2026-03-09T12:05:38.052096","MEAN_MOTION":15.68794519,"ECCENTRICITY":0.00170561,"INCLINATION":64.8558,"RA_OF_ASC_NODE":101.9902,"ARG_OF_PERICENTER":280.6272,"MEAN_ANOMALY":79.2958,"EPHEMERIS_TYPE":0,"CLASSIFICATION_TYPE":"U","NORAD_CAT_ID":39132,"ELEMENT_SET_NO":999,"REV_AT_EPOCH":71099,"BSTAR":0.00072172094,"MEAN_MOTION_DOT":0.00084334,"MEAN_MOTION_DDOT":0}]
